ONEWEB-0538             
1 56047U 23043B   24087.54073415  .00000201  00000+0  49160-3 0  9999
2 56047  87.9133  30.3190 0001513  84.5049 275.6254 13.16597498 52170
ONEWEB-0546             
1 56048U 23043C   24087.60407154  .00000104  00000+0  23812-3 0  9996
2 56048  87.9133  30.2693 0002583  97.5667 262.5757 13.16595885 52177
ONEWEB-0547             
1 56049U 23043D   24087.40464720  .00000043  00000+0  72874-4 0  9992
2 56049  87.9276  45.5468 0001555  94.3714 265.7597 13.21828939 50980
ONEWEB-0548             
1 56050U 23043E   24087.55340836 -.00000012  00000+0 -66282-4 0  9995
2 56050  87.9132  30.3236 0002319  66.3839 293.7535 13.16595641 52164
ONEWEB-0549             
1 56051U 23043F   24087.39675980 -.00000042  00000+0 -13264-3 0  9993
2 56051  87.9277  45.5483 0001808  80.1615 279.9723 13.21827648 50989
ONEWEB-0550             
1 56052U 23043G   24087.61123496  .00000013  00000+0 -44001-6 0  9992
2 56052  87.9276  45.5163 0001957  74.7530 285.3820 13.21827779 51013
ONEWEB-0551             
1 56053U 23043H   24087.47143042  .00000009  00000+0 -88884-5 0  9997
2 56053  87.8992  60.7655 0001696  82.3727 277.7595 13.15549903 49672
ONEWEB-0552             
1 56054U 23043J   24087.60492889  .00000104  00000+0  22006-3 0  9996
2 56054  87.9272  45.5278 0001885  71.1938 288.9400 13.21823914 51011
